STARLINK-31212          
1 58875U 24019Y   25305.90573012  .00000391  00000+0  23756-4 0  9990
2 58875  43.0078 250.2305 0001377 275.2636  84.8058 15.27564653 99525
STARLINK-31306          
1 58876U 24020A   25306.38558167  .00004726  00000+0  17160-3 0  9997
2 58876  53.1589 193.4993 0000842  95.8262 264.2834 15.30199390 99761
STARLINK-31326          
1 58877U 24020B   25305.98431326  .00003392  00000+0  12667-3 0  9995
2 58877  53.1612 195.9647 0001354  81.6046 278.5108 15.30185031 98515
STARLINK-31300          
1 58878U 24020C   25306.38875154  .00003082  00000+0  11617-3 0  9992
2 58878  53.1610 193.5191 0001466  85.3139 274.8029 15.30192518 98586
STARLINK-31296          
1 58879U 24020D   25306.32445115 -.00001091  00000+0 -24723-4 0  9990
2 58879  53.1581 168.2529 0001333  97.6625 262.4527 15.30179847 98932
STARLINK-31328          
1 58880U 24020E   25305.93149987  .00000499  00000+0  28986-4 0  9990
2 58880  53.1587 180.6349 0001262  80.2057 279.9086 15.30197991 98726
STARLINK-31260          
1 58881U 24020F   25306.39614133  .00002046  00000+0  81209-4 0  9999
2 58881  53.1606 193.5632 0001914  75.6399 284.4815 15.30189445 98588
STARLINK-31323          
1 58882U 24020G   25306.39930500  .00002357  00000+0  91728-4 0  9991
2 58882  53.1604 193.5812 0001598  92.0718 268.0466 15.30186489 98588
STARLINK-31209          
1 58883U 24020H   25306.40248150 -.00001320  00000+0 -32481-4 0  9999
2 58883  53.1600 193.6072 0001169 105.8414 254.2715 15.30172240 98588
STARLINK-31315          
1 58884U 24020J   25306.31952220 -.00078917  00000+0 -24099-2 0  9990
2 58884  53.1568 168.0945 0000848 236.8575 123.2346 15.33595190 98933
STARLINK-31318          
1 58885U 24020K   25304.74016627 -.00000348  00000+0  37439-6 0  9996
2 58885  53.1602 201.7005 0001595 103.2996 256.8182 15.30182487 98321
STARLINK-31320          
1 58886U 24020L   25306.01375013  .00000874  00000+0  41639-4 0  9994
2 58886  53.1600 195.4422 0001144  72.7353 287.3773 15.30184853 98525
STARLINK-31321          
1 58887U 24020M   25306.40882356 -.00000495  00000+0 -45841-5 0  9992
2 58887  53.1607 193.6408 0001736  91.2066 268.9133 15.30172051 99748
STARLINK-31007          
1 58889U 24020P   25306.41196926  .00001497  00000+0  62686-4 0  9992
2 58889  53.1605 193.6591 0001390  96.4547 263.6612 15.30183226 98589
STARLINK-31230          
1 58890U 24020Q   25306.40299873  .00001779  00000+0  72189-4 0  9990
2 58890  53.1610 191.5012 0001356 107.7615 252.3534 15.30190512 98614
STARLINK-31245          
1 58891U 24020R   25305.86818778 -.00001389  00000+0 -34775-4 0  9999
2 58891  53.1596 154.9934 0001074  78.7181 281.3941 15.30207783100231
STARLINK-31254          
1 58892U 24020S   25306.50002315  .00209045  00000+0  45794-2 0  9992
2 58892  53.1555 191.7871 0009671 179.8644 335.6370 15.42795920  5910
