[{"OBJECT_NAME":"STARLINK-31212","OBJECT_ID":"2024-019Y","EPOCH":"2025-11-01T21:44:15.082368","MEAN_MOTION":15.27564653,"ECCENTRICITY":0.0001377,"INCLINATION":43.0078,"RA_OF_ASC_NODE":250.2305,"ARG_OF_PERICENTER":275.2636,"MEAN_ANOMALY":84.8058,"EPHEMERIS_TYPE":0,"CLASSIFICATION_TYPE":"U","NORAD_CAT_ID":58875,"ELEMENT_SET_NO":999,"REV_AT_EPOCH":9952,"BSTAR":2.3755909e-5,"MEAN_MOTION_DOT":3.91e-6,"MEAN_MOTION_DDOT":0},{"OBJECT_NAME":"STARLINK-31306","OBJECT_ID":"2024-020A","EPOCH":"2025-11-02T09:15:14.256288","MEAN_MOTION":15.3019939,"ECCENTRICITY":8.42e-5,"INCLINATION":53.1589,"RA_OF_ASC_NODE":193.4993,"ARG_OF_PERICENTER":95.8262,"MEAN_ANOMALY":264.2834,"EPHEMERIS_TYPE":0,"CLASSIFICATION_TYPE":"U","NORAD_CAT_ID":58876,"ELEMENT_SET_NO":999,"REV_AT_EPOCH":9976,"BSTAR":0.0001716,"MEAN_MOTION_DOT":4.726e-5,"MEAN_MOTION_DDOT":0},{"OBJECT_NAME":"STARLINK-31326","OBJECT_ID":"2024-020B","EPOCH":"2025-11-01T23:37:24.665664","MEAN_MOTION":15.30185031,"ECCENTRICITY":0.00013541,"INCLINATION":53.1612,"RA_OF_ASC_NODE":195.9647,"ARG_OF_PERICENTER":81.6046,"MEAN_ANOMALY":278.5108,"EPHEMERIS_TYPE":0,"CLASSIFICATION_TYPE":"U","NORAD_CAT_ID":58877,"ELEMENT_SET_NO":999,"REV_AT_EPOCH":9851,"BSTAR":0.00012666749,"MEAN_MOTION_DOT":3.392e-5,"MEAN_MOTION_DDOT":0},{"OBJECT_NAME":"STARLINK-31300","OBJECT_ID":"2024-020C","EPOCH":"2025-11-02T09:19:48.133056","MEAN_MOTION":15.30192518,"ECCENTRICITY":0.0001466,"INCLINATION":53.161,"RA_OF_ASC_NODE":193.5191,"ARG_OF_PERICENTER":85.3139,"MEAN_ANOMALY":274.8029,"EPHEMERIS_TYPE":0,"CLASSIFICATION_TYPE":"U","NORAD_CAT_ID":58878,"ELEMENT_SET_NO":999,"REV_AT_EPOCH":9858,"BSTAR":0.00011617,"MEAN_MOTION_DOT":3.082e-5,"MEAN_MOTION_DDOT":0},{"OBJECT_NAME":"STARLINK-31296","OBJECT_ID":"2024-020D","EPOCH":"2025-11-02T07:47:12.579360","MEAN_MOTION":15.30179847,"ECCENTRICITY":0.0001333,"INCLINATION":53.1581,"RA_OF_ASC_NODE":168.2529,"ARG_OF_PERICENTER":97.6625,"MEAN_ANOMALY":262.4527,"EPHEMERIS_TYPE":0,"CLASSIFICATION_TYPE":"U","NORAD_CAT_ID":58879,"ELEMENT_SET_NO":999,"REV_AT_EPOCH":9893,"BSTAR":-2.4723e-5,"MEAN_MOTION_DOT":-1.091e-5,"MEAN_MOTION_DDOT":0},{"OBJECT_NAME":"STARLINK-31328","OBJECT_ID":"2024-020E","EPOCH":"2025-11-01T22:21:21.588768","MEAN_MOTION":15.30197991,"ECCENTRICITY":0.0001262,"INCLINATION":53.1587,"RA_OF_ASC_NODE":180.6349,"ARG_OF_PERICENTER":80.2057,"MEAN_ANOMALY":279.9086,"EPHEMERIS_TYPE":0,"CLASSIFICATION_TYPE":"U","NORAD_CAT_ID":58880,"ELEMENT_SET_NO":999,"REV_AT_EPOCH":9872,"BSTAR":2.8985868e-5,"MEAN_MOTION_DOT":4.99e-6,"MEAN_MOTION_DDOT":0},{"OBJECT_NAME":"STARLINK-31260","OBJECT_ID":"2024-020F","EPOCH":"2025-11-02T09:30:26.610912","MEAN_MOTION":15.30189445,"ECCENTRICITY":0.0001914,"INCLINATION":53.1606,"RA_OF_ASC_NODE":193.5632,"ARG_OF_PERICENTER":75.6399,"MEAN_ANOMALY":284.4815,"EPHEMERIS_TYPE":0,"CLASSIFICATION_TYPE":"U","NORAD_CAT_ID":58881,"ELEMENT_SET_NO":999,"REV_AT_EPOCH":9858,"BSTAR":8.1209e-5,"MEAN_MOTION_DOT":2.046e-5,"MEAN_MOTION_DDOT":0},{"OBJECT_NAME":"STARLINK-31323","OBJECT_ID":"2024-020G","EPOCH":"2025-11-02T09:34:59.952000","MEAN_MOTION":15.30186489,"ECCENTRICITY":0.0001598,"INCLINATION":53.1604,"RA_OF_ASC_NODE":193.5812,"ARG_OF_PERICENTER":92.0718,"MEAN_ANOMALY":268.0466,"EPHEMERIS_TYPE":0,"CLASSIFICATION_TYPE":"U","NORAD_CAT_ID":58882,"ELEMENT_SET_NO":999,"REV_AT_EPOCH":9858,"BSTAR":9.1728e-5,"MEAN_MOTION_DOT":2.357e-5,"MEAN_MOTION_DDOT":0},{"OBJECT_NAME":"STARLINK-31209","OBJECT_ID":"2024-020H","EPOCH":"2025-11-02T09:39:34.401600","MEAN_MOTION":15.3017224,"ECCENTRICITY":0.0001169,"INCLINATION":53.16,"RA_OF_ASC_NODE":193.6072,"ARG_OF_PERICENTER":105.8414,"MEAN_ANOMALY":254.2715,"EPHEMERIS_TYPE":0,"CLASSIFICATION_TYPE":"U","NORAD_CAT_ID":58883,"ELEMENT_SET_NO":999,"REV_AT_EPOCH":9858,"BSTAR":-3.2481e-5,"MEAN_MOTION_DOT":-1.32e-5,"MEAN_MOTION_DDOT":0},{"OBJECT_NAME":"STARLINK-31315","OBJECT_ID":"2024-020J","EPOCH":"2025-11-02T07:40:06.718080","MEAN_MOTION":15.3359519,"ECCENTRICITY":8.48e-5,"INCLINATION":53.1568,"RA_OF_ASC_NODE":168.0945,"ARG_OF_PERICENTER":236.8575,"MEAN_ANOMALY":123.2346,"EPHEMERIS_TYPE":0,"CLASSIFICATION_TYPE":"U","NORAD_CAT_ID":58884,"ELEMENT_SET_NO":999,"REV_AT_EPOCH":9893,"BSTAR":-0.0024099,"MEAN_MOTION_DOT":-0.00078917,"MEAN_MOTION_DDOT":0},{"OBJECT_NAME":"STARLINK-31318","OBJECT_ID":"2024-020K","EPOCH":"2025-10-31T17:45:50.365728","MEAN_MOTION":15.30182487,"ECCENTRICITY":0.0001595,"INCLINATION":53.1602,"RA_OF_ASC_NODE":201.7005,"ARG_OF_PERICENTER":103.2996,"MEAN_ANOMALY":256.8182,"EPHEMERIS_TYPE":0,"CLASSIFICATION_TYPE":"U","NORAD_CAT_ID":58885,"ELEMENT_SET_NO":999,"REV_AT_EPOCH":9832,"BSTAR":3.7439e-7,"MEAN_MOTION_DOT":-3.48e-6,"MEAN_MOTION_DDOT":0},{"OBJECT_NAME":"STARLINK-31320","OBJECT_ID":"2024-020L","EPOCH":"2025-11-02T00:19:48.011232","MEAN_MOTION":15.30184853,"ECCENTRICITY":0.0001144,"INCLINATION":53.16,"RA_OF_ASC_NODE":195.4422,"ARG_OF_PERICENTER":72.7353,"MEAN_ANOMALY":287.3773,"EPHEMERIS_TYPE":0,"CLASSIFICATION_TYPE":"U","NORAD_CAT_ID":58886,"ELEMENT_SET_NO":999,"REV_AT_EPOCH":9852,"BSTAR":4.1639082e-5,"MEAN_MOTION_DOT":8.74e-6,"MEAN_MOTION_DDOT":0},{"OBJECT_NAME":"STARLINK-31321","OBJECT_ID":"2024-020M","EPOCH":"2025-11-02T09:48:42.355584","MEAN_MOTION":15.30172051,"ECCENTRICITY":0.0001736,"INCLINATION":53.1607,"RA_OF_ASC_NODE":193.6408,"ARG_OF_PERICENTER":91.2066,"MEAN_ANOMALY":268.9133,"EPHEMERIS_TYPE":0,"CLASSIFICATION_TYPE":"U","NORAD_CAT_ID":58887,"ELEMENT_SET_NO":999,"REV_AT_EPOCH":9974,"BSTAR":-4.5841e-6,"MEAN_MOTION_DOT":-4.95e-6,"MEAN_MOTION_DDOT":0},{"OBJECT_NAME":"STARLINK-31007","OBJECT_ID":"2024-020P","EPOCH":"2025-11-02T09:53:14.144064","MEAN_MOTION":15.30183226,"ECCENTRICITY":0.000139,"INCLINATION":53.1605,"RA_OF_ASC_NODE":193.6591,"ARG_OF_PERICENTER":96.4547,"MEAN_ANOMALY":263.6612,"EPHEMERIS_TYPE":0,"CLASSIFICATION_TYPE":"U","NORAD_CAT_ID":58889,"ELEMENT_SET_NO":999,"REV_AT_EPOCH":9858,"BSTAR":6.2686e-5,"MEAN_MOTION_DOT":1.497e-5,"MEAN_MOTION_DDOT":0},{"OBJECT_NAME":"STARLINK-31230","OBJECT_ID":"2024-020Q","EPOCH":"2025-11-02T09:40:19.090272","MEAN_MOTION":15.30190512,"ECCENTRICITY":0.0001356,"INCLINATION":53.161,"RA_OF_ASC_NODE":191.5012,"ARG_OF_PERICENTER":107.7615,"MEAN_ANOMALY":252.3534,"EPHEMERIS_TYPE":0,"CLASSIFICATION_TYPE":"U","NORAD_CAT_ID":58890,"ELEMENT_SET_NO":999,"REV_AT_EPOCH":9861,"BSTAR":7.2189e-5,"MEAN_MOTION_DOT":1.779e-5,"MEAN_MOTION_DDOT":0},{"OBJECT_NAME":"STARLINK-31245","OBJECT_ID":"2024-020R","EPOCH":"2025-11-01T20:50:11.424192","MEAN_MOTION":15.30207783,"ECCENTRICITY":0.00010741,"INCLINATION":53.1596,"RA_OF_ASC_NODE":154.9934,"ARG_OF_PERICENTER":78.7181,"MEAN_ANOMALY":281.3941,"EPHEMERIS_TYPE":0,"CLASSIFICATION_TYPE":"U","NORAD_CAT_ID":58891,"ELEMENT_SET_NO":999,"REV_AT_EPOCH":10023,"BSTAR":-3.4774506e-5,"MEAN_MOTION_DOT":-1.389e-5,"MEAN_MOTION_DDOT":0},{"OBJECT_NAME":"STARLINK-31254","OBJECT_ID":"2024-020S","EPOCH":"2025-11-02T12:00:02.000160","MEAN_MOTION":15.4279592,"ECCENTRICITY":0.0009671,"INCLINATION":53.1555,"RA_OF_ASC_NODE":191.7871,"ARG_OF_PERICENTER":179.8644,"MEAN_ANOMALY":335.637,"EPHEMERIS_TYPE":0,"CLASSIFICATION_TYPE":"U","NORAD_CAT_ID":58892,"ELEMENT_SET_NO":999,"REV_AT_EPOCH":591,"BSTAR":0.0045794,"MEAN_MOTION_DOT":0.00209045,"MEAN_MOTION_DDOT":0}]
